LANDSAT 9               
1 49260U 21088A   23281.12409298  .00000975  00000+0  22645-3 0  9993
2 49260  98.2194 349.6081 0001140  83.3781 276.7547 14.57108032107831
